NORAD_CAT_ID,OBJECT_NAME,OBJECT_TYPE,EPOCH,MEAN_MOTION,ECCENTRICITY,INCLINATION,RA_OF_ASC_NODE,ARG_OF_PERICENTER,MEAN_ANOMALY,BSTAR,MEAN_MOTION_DOT,MEAN_MOTION_DDOT,TLE_LINE0,TLE_LINE1,TLE_LINE2,SEMIMAJOR_AXIS,PERIOD,APOGEE,PERIGEE,DECAYED
55920.0,STARLINK-5862,PAYLOAD,2023-04-17 16:34:09,15.69915301,0.0003109,69.9993,94.1362,274.8951,85.189,2.338e-05,2.598e-05,0.0,0 STARLINK-5862,1 55920U 23037G   23107.69038595  .00002598  00000-0  23380-4 0  9998,2 55920  69.9993  94.1362 0003109 274.8951  85.1890 15.69915301  5389,6737.276,91.725,361.236,357.047,0.0
55920.0,STARLINK-5862,PAYLOAD,2023-04-18 07:51:39,15.69930035,0.0003275,70.0009,92.3445,265.1715,94.9107,1.5606e-05,1.665e-05,0.0,0 STARLINK-5862,1 55920U 23037G   23108.32754424  .00001665  00000-0  15606-4 0  9991,2 55920  70.0009  92.3445 0003275 265.1715  94.9107 15.69930035  5141,6737.234,91.724,361.306,356.893,0.0
55920.0,STARLINK-5862,PAYLOAD,2023-04-19 08:19:42,15.69927551,0.0002663,70.0012,89.4791,258.8525,101.2372,2.0494e-05,2.253e-05,0.0,0 STARLINK-5862,1 55920U 23037G   23109.34701491  .00002253  00000-0  20494-4 0  9995,2 55920  70.0012  89.4791 0002663 258.8525 101.2372 15.69927551  5644,6737.241,91.724,360.9,357.312,0.0
55920.0,STARLINK-5862,PAYLOAD,2023-04-19 15:58:27,15.69918185,0.0003353,69.9992,88.5824,266.8996,93.1816,2.4421e-06,8.1e-07,0.0,0 STARLINK-5862,1 55920U 23037G   23109.66560158  .00000081  00000-0  24421-5 0  9995,2 55920  69.9992  88.5824 0003353 266.8996  93.1816 15.69918185  5356,6737.268,91.725,361.392,356.874,0.0
55920.0,STARLINK-5862,PAYLOAD,2023-04-20 08:47:43,15.69932023,0.0003145,70.0026,86.6138,263.7518,96.332,2.3225e-05,2.582e-05,0.0,0 STARLINK-5862,1 55920U 23037G   23110.36647881  .00002582  00000-0  23225-4 0  9991,2 55920  70.0026  86.6138 0003145 263.7518  96.3320 15.69932023  5463,6737.228,91.724,361.212,356.975,0.0
55920.0,STARLINK-5862,PAYLOAD,2023-04-21 00:05:16,15.69916169,0.0003542,69.9994,84.8228,267.9273,92.1517,-6.7765e-06,-1.027e-05,0.0,0 STARLINK-5862,1 55920U 23037G   23111.00366049 -.00001027  00000-0 -67765-5 0  9990,2 55920  69.9994  84.8228 0003542 267.9273  92.1517 15.69916169  5903,6737.274,91.725,361.525,356.752,0.0
55920.0,STARLINK-5862,PAYLOAD,2023-04-21 10:47:31,15.69923635,0.0003322,69.9989,83.5679,270.7012,89.3803,-2.8124e-06,-5.51e-06,0.0,0 STARLINK-5862,1 55920U 23037G   23111.44967105 -.00000551  00000-0 -28124-5 0  9995,2 55920  69.9989  83.5679 0003322 270.7012  89.3803 15.69923635  5971,6737.252,91.724,361.356,356.879,0.0
55920.0,STARLINK-5862,PAYLOAD,2023-04-21 23:01:32,15.69923939,0.000348,69.998,82.1342,271.4547,88.625,1.0751e-05,1.08e-05,0.0,0 STARLINK-5862,1 55920U 23037G   23111.95940356  .00001080  00000-0  10751-4 0  9992,2 55920  69.9980  82.1342 0003480 271.4547  88.6250 15.69923939  5717,6737.252,91.724,361.461,356.772,0.0
55920.0,STARLINK-5862,PAYLOAD,2023-04-22 08:12:02,15.69936333,0.0003299,69.9988,81.0573,270.498,89.5838,6.2125e-06,5.35e-06,0.0,0 STARLINK-5862,1 55920U 23037G   23112.34169500  .00000535  00000-0  62125-5 0  9997,2 55920  69.9988  81.0573 0003299 270.4980  89.5838 15.69936333  6116,6737.216,91.723,361.304,356.859,0.0
55920.0,STARLINK-5862,PAYLOAD,2023-04-23 04:04:49,15.6992446,0.0002863,70.0014,78.7316,264.8195,95.2674,-1.5889e-05,-2.122e-05,0.0,0 STARLINK-5862,1 55920U 23037G   23113.17002034 -.00002122  00000-0 -15889-4 0  9997,2 55920  70.0014  78.7316 0002863 264.8195  95.2674 15.69924460  5904,6737.25,91.724,361.044,357.186,0.0
55920.0,STARLINK-5862,PAYLOAD,2023-04-23 20:54:05,15.69933675,0.000323,70.0018,76.7606,265.8183,94.2644,3.0346e-05,3.439e-05,0.0,0 STARLINK-5862,1 55920U 23037G   23113.87089954  .00003439  00000-0  30346-4 0  9995,2 55920  70.0018  76.7606 0003230 265.8183  94.2644 15.69933675  6012,6737.224,91.724,361.265,356.913,0.0
55920.0,STARLINK-5862,PAYLOAD,2023-04-25 00:25:38,15.69911174,0.0003487,70.0008,73.5357,263.5412,96.5387,-3.2507e-05,-4.118e-05,0.0,0 STARLINK-5862,1 55920U 23037G   23115.01780740 -.00004118  00000-0 -32507-4 0  9992,2 55920  70.0008  73.5357 0003487 263.5412  96.5387 15.69911174  6539,6737.288,91.725,361.502,356.804,0.0
55920.0,STARLINK-5862,PAYLOAD,2023-04-25 06:32:39,15.69897989,0.0003306,70.0019,72.8194,260.2256,99.8566,-6.2331e-05,-7.692e-05,0.0,0 STARLINK-5862,1 55920U 23037G   23115.27268058 -.00007692  00000-0 -62331-4 0  9991,2 55920  70.0019  72.8194 0003306 260.2256  99.8566 15.69897989  6231,6737.326,91.726,361.418,356.963,0.0
55920.0,STARLINK-5862,PAYLOAD,2023-04-26 07:00:40,15.69923929,0.0003201,70.0024,69.9516,254.5966,105.4877,1.0906e-05,1.099e-05,0.0,0 STARLINK-5862,1 55920U 23037G   23116.29213968  .00001099  00000-0  10906-4 0  9998,2 55920  70.0024  69.9516 0003201 254.5966 105.4877 15.69923929  6390,6737.252,91.724,361.273,356.96,0.0
55920.0,STARLINK-5862,PAYLOAD,2023-04-27 04:25:12,15.69925977,0.0003121,70.0011,67.4458,253.8198,106.2654,3.139e-05,3.564e-05,0.0,0 STARLINK-5862,1 55920U 23037G   23117.18417672  .00003564  00000-0  31390-4 0  9994,2 55920  70.0011  67.4458 0003121 253.8198 106.2654 15.69925977  6874,6737.246,91.724,361.213,357.008,0.0
55920.0,STARLINK-5862,PAYLOAD,2023-04-27 05:56:57,15.69925083,0.0003251,70.0008,67.2663,252.3838,107.7003,2.7073e-05,3.044e-05,0.0,0 STARLINK-5862,1 55920U 23037G   23117.24789349  .00003044  00000-0  27073-4 0  9990,2 55920  70.0008  67.2663 0003251 252.3838 107.7003 15.69925083  6541,6737.248,91.724,361.304,356.923,0.0
55920.0,STARLINK-5862,PAYLOAD,2023-04-28 06:25:00,15.69903089,0.0002438,70.0017,64.3995,258.2036,101.8886,-5.7695e-05,-7.136e-05,0.0,0 STARLINK-5862,1 55920U 23037G   23118.26737020 -.00007136  00000-0 -57695-4 0  9993,2 55920  70.0017  64.3995 0002438 258.2036 101.8886 15.69903089  7040,6737.311,91.725,360.819,357.534,0.0
55920.0,STARLINK-5862,PAYLOAD,2023-04-28 20:10:45,15.69929887,0.0003312,70.0012,62.7875,269.1601,90.9215,2.7875e-05,3.141e-05,0.0,0 STARLINK-5862,1 55920U 23037G   23118.84080786  .00003141  00000-0  27875-4 0  9994,2 55920  70.0012  62.7875 0003312 269.1601  90.9215 15.69929887  7133,6737.235,91.724,361.331,356.868,0.0
55920.0,STARLINK-5862,PAYLOAD,2023-04-29 05:21:16,15.69923805,0.0003317,70.0007,61.7131,271.6565,88.4251,1.2073e-05,1.239e-05,0.0,0 STARLINK-5862,1 55920U 23037G   23119.22311080  .00001239  00000-0  12073-4 0  9991,2 55920  70.0007  61.7131 0003317 271.6565  88.4251 15.69923805  6857,6737.252,91.724,361.352,356.882,0.0
55920.0,STARLINK-5862,PAYLOAD,2023-04-29 19:07:02,15.69925694,0.0003311,70.0009,60.1004,272.0609,88.0208,1.4249e-05,1.501e-05,0.0,0 STARLINK-5862,1 55920U 23037G   23119.79656081  .00001501  00000-0  14249-4 0  9995,2 55920  70.0009  60.1004 0003311 272.0609  88.0208 15.69925694  7283,6737.247,91.724,361.342,356.881,0.0
55920.0,STARLINK-5862,PAYLOAD,2023-04-30 07:21:03,15.69927486,0.0003306,70.0011,58.666,271.7409,88.3408,1.5804e-05,1.688e-05,0.0,0 STARLINK-5862,1 55920U 23037G   23120.30629393  .00001688  00000-0  15804-4 0  9994,2 55920  70.0011  58.6660 0003306 271.7409  88.3408 15.69927486  7022,6737.241,91.724,361.334,356.879,0.0
55920.0,STARLINK-5862,PAYLOAD,2023-04-30 21:06:50,15.69922924,0.0003441,70.0,57.0552,273.5541,86.5261,5.8448e-06,4.9e-06,0.0,0 STARLINK-5862,1 55920U 23037G   23120.87974817  .00000490  00000-0  58448-5 0  9992,2 55920  70.0000  57.0552 0003441 273.5541  86.5261 15.69922924  7456,6737.255,91.724,361.438,356.801,0.0
55920.0,STARLINK-5862,PAYLOAD,2023-05-01 06:17:21,15.69927359,0.0002393,70.0019,55.9825,264.3721,95.7202,3.4571e-05,3.947e-05,0.0,0 STARLINK-5862,1 55920U 23037G   23121.26204922  .00003947  00000-0  34571-4 0  9999,2 55920  70.0019  55.9825 0002393 264.3721  95.7202 15.69927359  7172,6737.242,91.724,360.719,357.495,0.0
55920.0,STARLINK-5862,PAYLOAD,2023-05-01 21:34:51,15.69931289,0.0003178,70.0021,54.1894,272.9296,87.1536,3.2396e-05,3.685e-05,0.0,0 STARLINK-5862,1 55920U 23037G   23121.89921237  .00003685  00000-0  32396-4 0  9995,2 55920  70.0021  54.1894 0003178 272.9296  87.1536 15.69931289  7279,6737.231,91.724,361.237,356.954,0.0
55920.0,STARLINK-5862,PAYLOAD,2023-05-01 23:06:37,15.69930513,0.0003214,70.0016,54.0079,275.1828,84.9001,3.0258e-05,3.428e-05,0.0,0 STARLINK-5862,1 55920U 23037G   23121.96292941  .00003428  00000-0  30258-4 0  9996,2 55920  70.0016  54.0079 0003214 275.1828  84.9001 15.69930513  7624,6737.233,91.724,361.263,356.932,0.0
55920.0,STARLINK-5862,PAYLOAD,2023-05-02 12:52:23,15.69923915,0.0003494,70.0004,52.3966,270.3699,89.7097,1.5863e-05,1.695e-05,0.0,0 STARLINK-5862,1 55920U 23037G   23122.53638059  .00001695  00000-0  15863-4 0  9993,2 55920  70.0004  52.3966 0003494 270.3699  89.7097 15.69923915  7378,6737.252,91.724,361.471,356.763,0.0
55920.0,STARLINK-5862,PAYLOAD,2023-05-02 20:31:09,15.69919841,0.0003058,70.0022,51.4989,265.7779,94.3068,-5.9962e-06,-9.33e-06,0.0,0 STARLINK-5862,1 55920U 23037G   23122.85496720 -.00000933  00000-0 -59962-5 0  9990,2 55920  70.0022  51.4989 0003058 265.7779  94.3068 15.69919841  7425,6737.263,91.724,361.189,357.068,0.0
55920.0,STARLINK-5862,PAYLOAD,2023-05-03 04:09:54,15.69921855,0.0003027,70.002,50.6043,269.0053,91.0796,2.8695e-06,1.33e-06,0.0,0 STARLINK-5862,1 55920U 23037G   23123.17355129  .00000133  00000-0  28695-5 0  9992,2 55920  70.0020  50.6043 0003027 269.0053  91.0796 15.69921855  7478,6737.258,91.724,361.162,357.083,0.0
55920.0,STARLINK-5862,PAYLOAD,2023-05-03 17:55:40,15.6993413,0.000313,70.0019,48.9912,265.3292,94.7546,3.7104e-05,4.253e-05,0.0,0 STARLINK-5862,1 55920U 23037G   23123.74699682  .00004253  00000-0  37104-4 0  9991,2 55920  70.0019  48.9912 0003130 265.3292  94.7546 15.69934130  7901,6737.222,91.724,361.196,356.979,0.0
55920.0,STARLINK-5862,PAYLOAD,2023-05-03 20:59:10,15.6992675,0.000363,70.0015,48.6321,262.5554,97.5229,1.6311e-05,1.749e-05,0.0,0 STARLINK-5862,1 55920U 23037G   23123.87443173  .00001749  00000-0  16311-4 0  9991,2 55920  70.0015  48.6321 0003630 262.5554  97.5229 15.69926750  7585,6737.244,91.724,361.554,356.663,0.0
